[{"OBJECT_NAME":"TRANSPORTER-11 OBJECT A","OBJECT_ID":"2024-149A","EPOCH":"2026-03-09T17:54:54.302112","MEAN_MOTION":15.31141332,"ECCENTRICITY":0.00031096,"INCLINATION":97.378,"RA_OF_ASC_NODE":149.0949,"ARG_OF_PERICENTER":191.001,"MEAN_ANOMALY":169.1164,"EPHEMERIS_TYPE":0,"CLASSIFICATION_TYPE":"U","NORAD_CAT_ID":60468,"ELEMENT_SET_NO":999,"REV_AT_EPOCH":8683,"BSTAR":0.00036053677,"MEAN_MOTION_DOT":0.00010774,"MEAN_MOTION_DDOT":0},{"OBJECT_NAME":"STARLINK-35008","OBJECT_ID":"2025-192E","EPOCH":"2026-03-09T22:00:01.999584","MEAN_MOTION":15.30164779,"ECCENTRICITY":0.00010153,"INCLINATION":53.1577,"RA_OF_ASC_NODE":231.3051,"ARG_OF_PERICENTER":78.1444,"MEAN_ANOMALY":110.8383,"EPHEMERIS_TYPE":0,"CLASSIFICATION_TYPE":"U","NORAD_CAT_ID":65408,"ELEMENT_SET_NO":999,"REV_AT_EPOCH":578,"BSTAR":0.0027990517,"MEAN_MOTION_DOT":0.00083384,"MEAN_MOTION_DDOT":0}]
